STARLETTE               
1 07646U 75010A   20088.17962814 -.00000164  00000-0 -14912-4 0  9996
2 07646  49.8231  72.2501 0205733 117.6744 244.5191 13.82307206280254
LAGEOS 1                
1 08820U 76039A   20088.25299418  .00000022  00000-0  00000-0 0  9995
2 08820 109.8314 121.1435 0044212  67.8101 299.5927  6.38664747768363
AJISAI (EGS)            
1 16908U 86061A   20088.55452226 -.00000098  00000-0 -56936-5 0  9997
2 16908  50.0086 292.4415 0011430 157.4644 299.6781 12.44491529197877
LAGEOS 2                
1 22195U 92070B   20087.90065443 -.00000009  00000-0  00000+0 0  9994
2 22195  52.6455 262.7173 0138108 273.4635 129.4158  6.47294149648528
STELLA                  
1 22824U 93061B   20088.22069628 -.00000048  00000-0 -63916-6 0  9995
2 22824  98.9574  77.0430 0006189 352.3465  21.0465 14.27380018380659
LARES                   
1 38077U 12006A   20088.45744516 -.00000063  00000-0 -15168-3 0  9993
2 38077  69.4907 212.5545 0007737  10.6910 349.4279 12.54930744372152
